STARLINK-31691          
1 59856U 24097X   26068.83431115 -.00001985  00000+0 -62593-4 0  9996
2 59856  43.0044 273.1300 0001941 276.3289  83.7342 15.27587247101948
TEVEL2-3                
1 63218U 25052J   26068.64540225  .00020365  00000+0  69446-3 0  9991
2 63218  97.3994 324.7775 0004761 105.7353 254.4413 15.30377031 54855
